     2.100          NAVIGATION                              RINEX VERSION / TYPE
fic2rin                                 02/27/2016 00:49:08 PGM / RUN BY / DATE
                                                            END OF HEADER
17 16  2 26  2  0  0.0 -.201227143407D-03 -.568434188608D-12  .000000000000D+00
     .300000000000D+02  .471562500000D+02  .440018328530D-08  .191769271178D+01
     .216439366341D-05  .109993570950D-01  .566802918911D-05  .515364361763D+04
     .439200000000D+06 -.819563865662D-07 -.154026186908D+01 -.281259417534D-06
     .975076734900D+00  .277625000000D+03 -.194442667363D+01 -.803712049261D-08
     .266796827444D-09  .100000000000D+01  .188500000000D+04  .000000000000D+00
     .240000000000D+01  .000000000000D+00 -.107102096081D-07  .300000000000D+02
     .432006000000D+06  .400000000000D+01
18 16  2 26  2  0  0.0  .487423967570D-03  .397903932026D-11  .000000000000D+00
     .570000000000D+02 -.138750000000D+02  .477627037940D-08 -.280640095034D+01
    -.800937414169D-06  .167064252310D-01  .120326876640D-04  .515367242622D+04
     .439200000000D+06  .189989805222D-06  .479471789616D+00 -.875443220139D-07
     .925414378995D+00  .124531250000D+03 -.190965186887D+01 -.783996942334D-08
     .300012496725D-10  .100000000000D+01  .188500000000D+04  .000000000000D+00
     .240000000000D+01  .000000000000D+00 -.111758708954D-07  .570000000000D+02
     .432006000000D+06  .400000000000D+01
19 16  2 26  2  0  0.0 -.524970237166D-03 -.113686837722D-12  .000000000000D+00
     .340000000000D+02  .447187500000D+02  .451197365610D-08 -.120513126022D+01
     .244937837124D-05  .112355413148D-01  .481680035591D-05  .515519695282D+04
     .439200000000D+06  .216066837311D-06 -.149121277136D+01  .204890966415D-07
     .972156519273D+00  .291093750000D+03  .684716341984D+00 -.815426822943D-08
     .293226499775D-09  .100000000000D+01  .188500000000D+04  .000000000000D+00
     .240000000000D+01  .000000000000D+00 -.153668224812D-07  .340000000000D+02
     .432006000000D+06  .400000000000D+01
20 16  2 26  2  0  0.0  .395355280489D-03  .261479726760D-11  .000000000000D+00
     .200000000000D+02 -.171562500000D+02  .502770942428D-08  .116382895010D+01
    -.966712832451D-06  .484214571770D-02  .115353614092D-04  .515370322609D+04
     .439200000000D+06 -.149011611938D-07  .427546672486D+00 -.670552253723D-07
     .926684510804D+00  .143718750000D+03  .133570417577D+01 -.827070165078D-08
    -.138577200868D-09  .100000000000D+01  .188500000000D+04  .000000000000D+00
     .240000000000D+01  .000000000000D+00 -.838190317154D-08  .200000000000D+02
     .432006000000D+06  .400000000000D+01
21 16  2 26  2  0  0.0 -.512207392603D-03 -.181898940355D-11  .000000000000D+00
     .590000000000D+02 -.639062500000D+02  .512735643212D-08 -.193626032552D+01
    -.316277146339D-05  .232006657170D-01  .432319939137D-05  .515366070557D+04
     .439200000000D+06  .389292836189D-06 -.562404166414D+00  .689178705215D-07
     .935859254203D+00  .274656250000D+03 -.182440205429D+01 -.821498504424D-08
    -.301441127661D-09  .100000000000D+01  .188500000000D+04  .000000000000D+00
     .240000000000D+01  .000000000000D+00 -.116415321827D-07  .590000000000D+02
     .432006000000D+06  .400000000000D+01
22 16  2 26  2  0  0.0  .391230452806D-03 -.613908923697D-11  .000000000000D+00
     .280000000000D+02 -.184687500000D+02  .505342478114D-08  .215790088482D+01
    -.104866921902D-05  .769136450253D-02  .123791396618D-04  .515508974075D+04
     .439200000000D+06  .409781932831D-07  .480233528134D+00 -.197440385818D-06
     .923268545887D+00  .118718750000D+03 -.201732442427D+01 -.816212569958D-08
    -.428589281035D-10  .100000000000D+01  .188500000000D+04  .000000000000D+00
     .240000000000D+01  .000000000000D+00 -.176951289177D-07  .280000000000D+02
     .432006000000D+06  .400000000000D+01
23 16  2 26  2  0  0.0 -.161855015904D-03 -.181898940355D-11  .000000000000D+00
     .980000000000D+02  .671562500000D+02  .505699635848D-08  .640125140399D+00
     .360980629921D-05  .105061589275D-01  .603497028351D-05  .515371954155D+04
     .439200000000D+06 -.502914190292D-07  .155575401062D+01  .175088644028D-06
     .946165605698D+00  .255562500000D+03 -.260959125446D+01 -.852714090393D-08
     .347157317639D-09  .100000000000D+01  .188500000000D+04  .000000000000D+00
     .240000000000D+01  .000000000000D+00 -.200234353542D-07  .980000000000D+02
     .432006000000D+06  .400000000000D+01
24 16  2 26  2  0  0.0 -.130063854158D-04 -.682121026330D-12  .000000000000D+00
     .260000000000D+02 -.508437500000D+02  .510735559900D-08  .202160137353D-01
    -.261329114437D-05  .430473545566D-02  .496953725815D-05  .515362874031D+04
     .439200000000D+06  .372529029846D-07  .258224735964D+01  .111758708954D-07
     .950434637646D+00  .279187500000D+03  .376271810740D+00 -.849213944598D-08
    -.299655338991D-09  .100000000000D+01  .188500000000D+04  .000000000000D+00
     .240000000000D+01  .000000000000D+00  .232830643654D-08  .260000000000D+02
     .432006000000D+06  .400000000000D+01
25 16  2 26  2  0  0.0 -.123618636280D-03 -.682121026330D-11  .000000000000D+00
     .310000000000D+02  .331250000000D+01  .401552440557D-08 -.189247554436D+01
     .106170773506D-06  .520827725995D-02  .114440917969D-04  .515355239868D+04
     .439200000000D+06  .968575477600D-07 -.263159813448D+01 -.502914190292D-07
     .978877448735D+00  .169125000000D+03  .702030449975D+00 -.765960476757D-08
     .314298806093D-10  .100000000000D+01  .188500000000D+04  .000000000000D+00
     .240000000000D+01  .000000000000D+00  .558793544769D-08  .310000000000D+02
     .432006000000D+06  .400000000000D+01
26 16  2 26  2  0  0.0 -.269520562142D-03 -.153477230924D-10  .000000000000D+00
     .100000000000D+02 -.331250000000D+01  .438875423780D-08 -.252430327966D+01
    -.160187482834D-06  .886164372787D-03  .122766941786D-04  .515372072029D+04
     .439200000000D+06 -.223517417908D-07 -.263895978695D+01 -.409781932831D-07
     .960884735472D+00  .144218750000D+03 -.651240775249D-01 -.789961476495D-08
    -.471448209139D-10  .100000000000D+01  .188500000000D+04  .000000000000D+00
     .240000000000D+01  .000000000000D+00  .698491930962D-08  .100000000000D+02
     .432006000000D+06  .400000000000D+01
28 16  2 26  2  0  0.0  .505014322698D-03  .261479726760D-11  .000000000000D+00
     .960000000000D+02  .593750000000D+00  .364943772802D-08  .267226998103D+01
     .484287738800D-07  .198887791485D-01  .112429261208D-04  .515362842560D+04
     .439200000000D+06  .227242708206D-06 -.255799594929D+01 -.160187482834D-06
     .989751604087D+00  .172875000000D+03 -.162129327893D+01 -.723030117107D-08
    -.642883921553D-10  .100000000000D+01  .188500000000D+04  .000000000000D+00
     .340000000000D+01  .000000000000D+00 -.107102096081D-07  .960000000000D+02
     .432006000000D+06  .400000000000D+01
29 16  2 26  2  0  0.0  .654918141663D-03  .682121026330D-12  .000000000000D+00
     .103000000000D+03  .551562500000D+02  .445304262996D-08 -.181021697592D+01
     .282377004623D-05  .105639290996D-02  .524707138538D-05  .515360678291D+04
     .439200000000D+06 -.242143869400D-07 -.153062232735D+01 -.223517417908D-07
     .976013240926D+00  .283062500000D+03 -.542131439733D+00 -.816605443466D-08
     .285011871888D-09  .100000000000D+01  .188500000000D+04  .000000000000D+00
     .240000000000D+01  .000000000000D+00 -.102445483208D-07  .103000000000D+03
     .432006000000D+06  .400000000000D+01
30 16  2 26  2  0  0.0  .100515782833D-03  .420641299570D-11  .000000000000D+00
     .350000000000D+02 -.496250000000D+02  .493841999073D-08 -.818776848382D+00
    -.268034636974D-05  .172637787182D-02  .550784170628D-05  .515363103867D+04
     .439200000000D+06  .428408384323D-07  .267326745271D+01 -.372529029846D-08
     .953184980689D+00  .267218750000D+03  .300306563301D+01 -.837749181330D-08
    -.268939773850D-09  .100000000000D+01  .188500000000D+04  .000000000000D+00
     .240000000000D+01  .000000000000D+00  .325962901115D-08  .350000000000D+02
     .432006000000D+06  .400000000000D+01
31 16  2 26  2  0  0.0  .281006563455D-03 -.170530256582D-11  .000000000000D+00
     .480000000000D+02 -.544062500000D+02  .460769192886D-08 -.982640043313D+00
    -.311620533466D-05  .831052206922D-02  .571645796299D-05  .515369675827D+04
     .439200000000D+06 -.298023223877D-07  .263676650117D+01 -.875443220139D-07
     .972214152393D+00  .272843750000D+03 -.422967528238D+00 -.828427364468D-08
    -.224652214809D-09  .100000000000D+01  .188500000000D+04  .000000000000D+00
     .240000000000D+01  .000000000000D+00 -.135041773319D-07  .480000000000D+02
     .432006000000D+06  .400000000000D+01
32 16  2 26  2  0  0.0  .799866393209D-05  .363797880709D-11  .000000000000D+00
     .148000000000D+03  .726250000000D+02  .458947688442D-08  .154233551304D-02
     .391528010368D-05  .105800922029D-03  .597909092903D-05  .516564046478D+04
     .439200000000D+06  .596046447754D-07  .155054940745D+01 -.167638063431D-07
     .959827989283D+00  .261250000000D+03  .308112311326D+00 -.813069581897D-08
     .503949562951D-09  .100000000000D+01  .188500000000D+04  .000000000000D+00
     .340000000000D+01  .630000000000D+02  .279396772385D-08  .148000000000D+03
     .432006000000D+06  .400000000000D+01
28 16  2 26  1 59 44.0  .505018047988D-03  .261479726760D-11  .000000000000D+00
     .900000000000D+01  .593750000000D+00  .364943772802D-08  .266993615564D+01
     .484287738800D-07  .198887778679D-01  .112429261208D-04  .515362842560D+04
     .439184000000D+06  .227242708206D-06 -.255799583079D+01 -.160187482834D-06
     .989751612865D+00  .172875000000D+03 -.162129329648D+01 -.723030117107D-08
    -.642883921553D-10  .100000000000D+01  .188500000000D+04  .000000000000D+00
     .240000000000D+01  .000000000000D+00 -.107102096081D-07  .900000000000D+01
     .433956000000D+06  .400000000000D+01
